{
  "constellation": "gps",
  "timestamp": "2025-07-21T05:06:14.396670+00:00",
  "satellite_count": 32,
  "data": [
    {
      "satellite_name": "GPS BIIF-1  (PRN 25)",
      "catalog_number": 36585,
      "epoch_year": 2025,
      "epoch_day": 199.90672586,
      "first_derivative": 9.7e-07,
      "second_derivative": 0.0,
      "drag_term": 0.0,
      "inclination": 54.3335,
      "right_ascension": 221.9905,
      "eccentricity": 0.0120688,
      "argument_of_perigee": 64.0844,
      "mean_anomaly": 298.7064,
      "mean_motion": 2.00571472,
      "revolution_number": 11091,
      "line1": "1 36585U 10022A   25199.90672586  .00000097  00000+0  00000+0 0  9995",
      "line2": "2 36585  54.3335 221.9905 0120688  64.0844 298.7064  2.00571472110917",
      "last_updated": "2025-07-21T05:06:14.396589+00:00",
      "constellation": "gps"
    },
    {
      "satellite_name": "GPS BIIF-3  (PRN 24)",
      "catalog_number": 38833,
      "epoch_year": 2025,
      "epoch_day": 201.26738304,
      "first_derivative": 3.1e-07,
      "second_derivative": 0.0,
      "drag_term": 0.0,
      "inclination": 53.5423,
      "right_ascension": 157.1945,
      "eccentricity": 0.0167893,
      "argument_of_perigee": 61.1845,
      "mean_anomaly": 300.4584,
      "mean_motion": 2.00563305,
      "revolution_number": 9278,
      "line1": "1 38833U 12053A   25201.26738304  .00000031  00000+0  00000+0 0  9991",
      "line2": "2 38833  53.5423 157.1945 0167893  61.1845 300.4584  2.00563305 92784",
      "last_updated": "2025-07-21T05:06:14.396592+00:00",
      "constellation": "gps"
    },
    {
      "satellite_name": "GPS BIIF-4  (PRN 27)",
      "catalog_number": 39166,
      "epoch_year": 2025,
      "epoch_day": 201.13150219,
      "first_derivative": -2.7e-07,
      "second_derivative": 0.0,
      "drag_term": 0.0,
      "inclination": 54.7696,
      "right_ascension": 282.4847,
      "eccentricity": 0.0132704,
      "argument_of_perigee": 48.1603,
      "mean_anomaly": 313.0206,
      "mean_motion": 2.00565707,
      "revolution_number": 8922,
      "line1": "1 39166U 13023A   25201.13150219 -.00000027  00000+0  00000+0 0  9994",
      "line2": "2 39166  54.7696 282.4847 0132704  48.1603 313.0206  2.00565707 89226",
      "last_updated": "2025-07-21T05:06:14.396596+00:00",
      "constellation": "gps"
    },
    {
      "satellite_name": "GPS BIIF-5  (PRN 30)",
      "catalog_number": 39533,
      "epoch_year": 2025,
      "epoch_day": 201.12973921,
      "first_derivative": 4.5e-07,
      "second_derivative": 0.0,
      "drag_term": 0.0,
      "inclination": 53.6192,
      "right_ascension": 162.8608,
      "eccentricity": 0.0078767,
      "argument_of_perigee": 226.2952,
      "mean_anomaly": 133.0239,
      "mean_motion": 2.00565597,
      "revolution_number": 8302,
      "line1": "1 39533U 14008A   25201.12973921  .00000045  00000+0  00000+0 0  9997",
      "line2": "2 39533  53.6192 162.8608 0078767 226.2952 133.0239  2.00565597 83028",
      "last_updated": "2025-07-21T05:06:14.396600+00:00",
      "constellation": "gps"
    },
    {
      "satellite_name": "GPS BIIF-6  (PRN 06)",
      "catalog_number": 39741,
      "epoch_year": 2025,
      "epoch_day": 201.40805623,
      "first_derivative": -9.3e-07,
      "second_derivative": 0.0,
      "drag_term": 0.0,
      "inclination": 56.6369,
      "right_ascension": 344.4253,
      "eccentricity": 0.0034719,
      "argument_of_perigee": 318.9708,
      "mean_anomaly": 40.7684,
      "mean_motion": 2.00571607,
      "revolution_number": 8188,
      "line1": "1 39741U 14026A   25201.40805623 -.00000093  00000+0  00000+0 0  9996",
      "line2": "2 39741  56.6369 344.4253 0034719 318.9708  40.7684  2.00571607 81888",
      "last_updated": "2025-07-21T05:06:14.396604+00:00",
      "constellation": "gps"
    },
    {
      "satellite_name": "GPS BIIF-7  (PRN 09)",
      "catalog_number": 40105,
      "epoch_year": 2025,
      "epoch_day": 200.50096419,
      "first_derivative": -4.1e-07,
      "second_derivative": 0.0,
      "drag_term": 0.0,
      "inclination": 55.1352,
      "right_ascension": 101.7353,
      "eccentricity": 0.003069,
      "argument_of_perigee": 115.8998,
      "mean_anomaly": 244.4448,
      "mean_motion": 2.00563258,
      "revolution_number": 7940,
      "line1": "1 40105U 14045A   25200.50096419 -.00000041  00000+0  00000+0 0  9991",
      "line2": "2 40105  55.1352 101.7353 0030690 115.8998 244.4448  2.00563258 79403",
      "last_updated": "2025-07-21T05:06:14.396607+00:00",
      "constellation": "gps"
    },
    {
      "satellite_name": "GPS BIIF-8  (PRN 03)",
      "catalog_number": 40294,
      "epoch_year": 2025,
      "epoch_day": 200.87042907,
      "first_derivative": -5.4e-07,
      "second_derivative": 0.0,
      "drag_term": 0.0,
      "inclination": 56.7486,
      "right_ascension": 43.7842,
      "eccentricity": 0.0061895,
      "argument_of_perigee": 68.0971,
      "mean_anomaly": 292.6188,
      "mean_motion": 2.00555739,
      "revolution_number": 7853,
      "line1": "1 40294U 14068A   25200.87042907 -.00000054  00000+0  00000+0 0  9992",
      "line2": "2 40294  56.7486  43.7842 0061895  68.0971 292.6188  2.00555739 78530",
      "last_updated": "2025-07-21T05:06:14.396611+00:00",
      "constellation": "gps"
    },
    {
      "satellite_name": "GPS BIIF-9  (PRN 26)",
      "catalog_number": 40534,
      "epoch_year": 2025,
      "epoch_day": 201.0075542,
      "first_derivative": 9.9e-07,
      "second_derivative": 0.0,
      "drag_term": 0.0,
      "inclination": 53.2312,
      "right_ascension": 217.9192,
      "eccentricity": 0.0099699,
      "argument_of_perigee": 35.3385,
      "mean_anomaly": 325.3694,
      "mean_motion": 2.00571091,
      "revolution_number": 7516,
      "line1": "1 40534U 15013A   25201.00755420  .00000099  00000+0  00000+0 0  9995",
      "line2": "2 40534  53.2312 217.9192 0099699  35.3385 325.3694  2.00571091 75160",
      "last_updated": "2025-07-21T05:06:14.396615+00:00",
      "constellation": "gps"
    },
    {
      "satellite_name": "GPS BIIF-10 (PRN 08)",
      "catalog_number": 40730,
      "epoch_year": 2025,
      "epoch_day": 201.16997318,
      "first_derivative": -2.3e-07,
      "second_derivative": 0.0,
      "drag_term": 0.0,
      "inclination": 54.249,
      "right_ascension": 280.7599,
      "eccentricity": 0.01042,
      "argument_of_perigee": 25.2283,
      "mean_anomaly": 335.3357,
      "mean_motion": 2.00572962,
      "revolution_number": 7333,
      "line1": "1 40730U 15033A   25201.16997318 -.00000023  00000+0  00000+0 0  9994",
      "line2": "2 40730  54.2490 280.7599 0104200  25.2283 335.3357  2.00572962 73337",
      "last_updated": "2025-07-21T05:06:14.396618+00:00",
      "constellation": "gps"
    },
    {
      "satellite_name": "GPS BIIF-11 (PRN 10)",
      "catalog_number": 41019,
      "epoch_year": 2025,
      "epoch_day": 200.22892875,
      "first_derivative": -5.4e-07,
      "second_derivative": 0.0,
      "drag_term": 0.0,
      "inclination": 56.7242,
      "right_ascension": 43.6651,
      "eccentricity": 0.0104231,
      "argument_of_perigee": 227.9303,
      "mean_anomaly": 131.2335,
      "mean_motion": 2.00566879,
      "revolution_number": 7115,
      "line1": "1 41019U 15062A   25200.22892875 -.00000054  00000+0  00000+0 0  9999",
      "line2": "2 41019  56.7242  43.6651 0104231 227.9303 131.2335  2.00566879 71150",
      "last_updated": "2025-07-21T05:06:14.396622+00:00",
      "constellation": "gps"
    },
    {
      "satellite_name": "GPS BIIF-12 (PRN 32)",
      "catalog_number": 41328,
      "epoch_year": 2025,
      "epoch_day": 200.80944476,
      "first_derivative": -4.2e-07,
      "second_derivative": 0.0,
      "drag_term": 0.0,
      "inclination": 55.3172,
      "right_ascension": 102.6509,
      "eccentricity": 0.008793,
      "argument_of_perigee": 242.8367,
      "mean_anomaly": 116.2913,
      "mean_motion": 2.00568109,
      "revolution_number": 6917,
      "line1": "1 41328U 16007A   25200.80944476 -.00000042  00000+0  00000+0 0  9998",
      "line2": "2 41328  55.3172 102.6509 0087930 242.8367 116.2913  2.00568109 69172",
      "last_updated": "2025-07-21T05:06:14.396626+00:00",
      "constellation": "gps"
    },
    {
      "satellite_name": "GPS BIII-1  (PRN 04)",
      "catalog_number": 43873,
      "epoch_year": 2025,
      "epoch_day": 201.19587854,
      "first_derivative": -4.3e-07,
      "second_derivative": 0.0,
      "drag_term": 0.0,
      "inclination": 55.4813,
      "right_ascension": 105.2962,
      "eccentricity": 0.0033913,
      "argument_of_perigee": 195.9894,
      "mean_anomaly": 336.3725,
      "mean_motion": 2.00571947,
      "revolution_number": 4841,
      "line1": "1 43873U 18109A   25201.19587854 -.00000043  00000+0  00000+0 0  9997",
      "line2": "2 43873  55.4813 105.2962 0033913 195.9894 336.3725  2.00571947 48413",
      "last_updated": "2025-07-21T05:06:14.396629+00:00",
      "constellation": "gps"
    },
    {
      "satellite_name": "GPS BIII-2  (PRN 18)",
      "catalog_number": 44506,
      "epoch_year": 2025,
      "epoch_day": 201.09628293,
      "first_derivative": -9.3e-07,
      "second_derivative": 0.0,
      "drag_term": 0.0,
      "inclination": 55.7734,
      "right_ascension": 344.3314,
      "eccentricity": 0.005442,
      "argument_of_perigee": 193.867,
      "mean_anomaly": 164.746,
      "mean_motion": 2.00562439,
      "revolution_number": 4340,
      "line1": "1 44506U 19056A   25201.09628293 -.00000093  00000+0  00000+0 0  9990",
      "line2": "2 44506  55.7734 344.3314 0054420 193.8670 164.7460  2.00562439 43403",
      "last_updated": "2025-07-21T05:06:14.396633+00:00",
      "constellation": "gps"
    }
  ]
}